start=new Date('2022-05-19T00:00:00.000Z').valueOf();
sats=[{"PERIOD":"95.594","CENTER_NAME":"EARTH","CLASSIFICATION_TYPE":"U","COUNTRY_CODE":"US","ECCENTRICITY":"0.00016210","MEAN_ANOMALY":"283.9481","NORAD_CAT_ID":"47844","RCS_SIZE":"LARGE","BSTAR":"-0.00020955000000","MEAN_MOTION_DDOT":"0.0000000000000","OBJECT_NAME":"STARLINK-2446","MEAN_MOTION":"15.06372016","SEMIMAJOR_AXIS":"6925.434","ELEMENT_SET_NO":"999","ARG_OF_PERICENTER":"76.1688","INCLINATION":"53.0567","TIME_SYSTEM":"UTC","EPHEMERIS_TYPE":"0","FILE":"3451871","REF_FRAME":"TEME","MEAN_MOTION_DOT":"-0.00003399","LAUNCH_DATE":"2021-03-11","OBJECT_ID":"2021-018BK","RA_OF_ASC_NODE":"19.4479","GP_ID":"203871979","REV_AT_EPOCH":"6682","OBJECT_TYPE":"PAYLOAD","MEAN_ELEMENT_THEORY":"SGP4","TLE_LINE2":"2 47844  53.0567  19.4479 0001621  76.1688 283.9481 15.06372016 66823","APOAPSIS":"548.422","PERIAPSIS":"546.177","DECAY_DATE":null,"EPOCH":"2022-05-17T22:30:48.679488","TLE_LINE1":"1 47844U 21018BK  22137.93806342 -.00003399  00000-0 -20955-3 0  9999","SITE":"AFETR"},{"MEAN_MOTION_DDOT":"0.0000000000000","BSTAR":"0.00029814000000","OBJECT_NAME":"STARLINK-2453","SEMIMAJOR_AXIS":"6925.322","MEAN_MOTION":"15.06408556","TIME_SYSTEM":"UTC","ELEMENT_SET_NO":"999","INCLINATION":"53.0541","ARG_OF_PERICENTER":"53.9671","COUNTRY_CODE":"US","CLASSIFICATION_TYPE":"U","CENTER_NAME":"EARTH","PERIOD":"95.592","MEAN_ANOMALY":"306.1483","ECCENTRICITY":"0.00017830","RCS_SIZE":"LARGE","NORAD_CAT_ID":"47845","OBJECT_TYPE":"PAYLOAD","TLE_LINE2":"2 47845  53.0541  15.4931 0001783  53.9671 306.1483 15.06408556 66626","MEAN_ELEMENT_THEORY":"SGP4","PERIAPSIS":"545.953","DECAY_DATE":null,"APOAPSIS":"548.422","SITE":"AFETR","TLE_LINE1":"1 47845U 21018BL  22138.81896768  .00004163  00000-0  29814-3 0  9990","EPOCH":"2022-05-18T19:39:18.807552","MEAN_MOTION_DOT":"0.00004163","REF_FRAME":"TEME","EPHEMERIS_TYPE":"0","FILE":"3452177","OBJECT_ID":"2021-018BL","LAUNCH_DATE":"2021-03-11","REV_AT_EPOCH":"6662","RA_OF_ASC_NODE":"15.4931","GP_ID":"203879187"},{"TIME_SYSTEM":"UTC","ARG_OF_PERICENTER":"67.1952","ELEMENT_SET_NO":"999","INCLINATION":"53.0559","SEMIMAJOR_AXIS":"6925.344","MEAN_MOTION":"15.06401455","OBJECT_NAME":"STARLINK-2456","BSTAR":"0.00010201000000","MEAN_MOTION_DDOT":"0.0000000000000","RCS_SIZE":"LARGE","NORAD_CAT_ID":"47846","MEAN_ANOMALY":"292.9202","ECCENTRICITY":"0.00015720","CENTER_NAME":"EARTH","PERIOD":"95.592","COUNTRY_CODE":"US","CLASSIFICATION_TYPE":"U","TLE_LINE1":"1 47846U 21018BM  22138.61624419  .00001238  00000-0  10201-3 0  9991","EPOCH":"2022-05-18T14:47:23.498016","SITE":"AFETR","APOAPSIS":"548.298","PERIAPSIS":"546.120","DECAY_DATE":null,"TLE_LINE2":"2 47846  53.0559  16.3999 0001572  67.1952 292.9202 15.06401455 66986","MEAN_ELEMENT_THEORY":"SGP4","OBJECT_TYPE":"PAYLOAD","REV_AT_EPOCH":"6698","RA_OF_ASC_NODE":"16.3999","GP_ID":"203904900","LAUNCH_DATE":"2021-03-11","OBJECT_ID":"2021-018BM","FILE":"3452356","EPHEMERIS_TYPE":"0","MEAN_MOTION_DOT":"0.00001238","REF_FRAME":"TEME"},{"LAUNCH_DATE":"2021-03-14","OBJECT_ID":"2021-021A","REV_AT_EPOCH":"6629","GP_ID":"203905404","RA_OF_ASC_NODE":"46.0755","FILE":"3452356","EPHEMERIS_TYPE":"0","MEAN_MOTION_DOT":"0.00002047","REF_FRAME":"TEME","APOAPSIS":"548.084","DECAY_DATE":null,"PERIAPSIS":"546.353","TLE_LINE1":"1 47860U 21021A   22138.68720215  .00002047  00000-0  15627-3 0  9995","EPOCH":"2022-05-18T16:29:34.265760","SITE":"AFETR","OBJECT_TYPE":"PAYLOAD","TLE_LINE2":"2 47860  53.0558  46.0755 0001250  42.1990 317.9095 15.06398303 66298","MEAN_ELEMENT_THEORY":"SGP4","RCS_SIZE":"LARGE","NORAD_CAT_ID":"47860","PERIOD":"95.592","CENTER_NAME":"EARTH","COUNTRY_CODE":"US","CLASSIFICATION_TYPE":"U","MEAN_ANOMALY":"317.9095","ECCENTRICITY":"0.00012500","SEMIMAJOR_AXIS":"6925.354","MEAN_MOTION":"15.06398303","TIME_SYSTEM":"UTC","ELEMENT_SET_NO":"999","ARG_OF_PERICENTER":"42.1990","INCLINATION":"53.0558","BSTAR":"0.00015627000000","MEAN_MOTION_DDOT":"0.0000000000000","OBJECT_NAME":"STARLINK-2258"},{"REF_FRAME":"TEME","MEAN_MOTION_DOT":"0.00001738","FILE":"3452356","EPHEMERIS_TYPE":"0","OBJECT_ID":"2021-021B","LAUNCH_DATE":"2021-03-14","REV_AT_EPOCH":"6663","RA_OF_ASC_NODE":"30.3979","GP_ID":"203904153","OBJECT_TYPE":"PAYLOAD","MEAN_ELEMENT_THEORY":"SGP4","TLE_LINE2":"2 47861  53.0548  30.3979 0001581  60.2433 299.8713 15.06401680 66638","DECAY_DATE":null,"PERIAPSIS":"546.114","APOAPSIS":"548.303","SITE":"AFETR","TLE_LINE1":"1 47861U 21021B   22138.83785975  .00001738  00000-0  13553-3 0  9999","EPOCH":"2022-05-18T20:06:31.082400","COUNTRY_CODE":"US","CLASSIFICATION_TYPE":"U","PERIOD":"95.592","CENTER_NAME":"EARTH","MEAN_ANOMALY":"299.8713","ECCENTRICITY":"0.00015810","RCS_SIZE":"LARGE","NORAD_CAT_ID":"47861","MEAN_MOTION_DDOT":"0.0000000000000","BSTAR":"0.00013553000000","OBJECT_NAME":"STARLINK-2280","SEMIMAJOR_AXIS":"6925.343","MEAN_MOTION":"15.06401680","TIME_SYSTEM":"UTC","ELEMENT_SET_NO":"999","ARG_OF_PERICENTER":"60.2433","INCLINATION":"53.0548"},{"ELEMENT_SET_NO":"999","ARG_OF_PERICENTER":"46.1422","INCLINATION":"53.0566","TIME_SYSTEM":"UTC","MEAN_MOTION":"15.06401448","SEMIMAJOR_AXIS":"6925.344","OBJECT_NAME":"STARLINK-2291","MEAN_MOTION_DDOT":"0.0000000000000","BSTAR":"0.00019192000000","NORAD_CAT_ID":"47862","RCS_SIZE":"LARGE","ECCENTRICITY":"0.00027350","MEAN_ANOMALY":"313.9793","CLASSIFICATION_TYPE":"U","COUNTRY_CODE":"US","CENTER_NAME":"EARTH","PERIOD":"95.592","SITE":"AFETR","TLE_LINE1":"1 47862U 21021C   22138.08824301  .00002578  00000-0  19192-3 0  9992","EPOCH":"2022-05-18T02:07:04.196064","PERIAPSIS":"545.315","DECAY_DATE":null,"APOAPSIS":"549.103","MEAN_ELEMENT_THEORY":"SGP4","TLE_LINE2":"2 47862  53.0566  28.7733 0002735  46.1422 313.9793 15.06401448 66583","OBJECT_TYPE":"PAYLOAD","GP_ID":"203870980","RA_OF_ASC_NODE":"28.7733","REV_AT_EPOCH":"6658","OBJECT_ID":"2021-021C","LAUNCH_DATE":"2021-03-14","REF_FRAME":"TEME","MEAN_MOTION_DOT":"0.00002578","EPHEMERIS_TYPE":"0","FILE":"3451871"},{"MEAN_MOTION_DOT":"0.00001057","REF_FRAME":"TEME","FILE":"3451871","EPHEMERIS_TYPE":"0","OBJECT_ID":"2021-021D","LAUNCH_DATE":"2021-03-14","RA_OF_ASC_NODE":"38.9603","GP_ID":"203871230","REV_AT_EPOCH":"6644","OBJECT_TYPE":"PAYLOAD","MEAN_ELEMENT_THEORY":"SGP4","TLE_LINE2":"2 47863  53.0554  38.9603 0001611  63.1975 296.9178 15.06400069 66444","DECAY_DATE":null,"PERIAPSIS":"546.098","APOAPSIS":"548.329","SITE":"AFETR","EPOCH":"2022-05-18T01:07:20.742240","TLE_LINE1":"1 47863U 21021D   22138.04676785  .00001057  00000-0  89872-4 0  9994","CLASSIFICATION_TYPE":"U","COUNTRY_CODE":"US","PERIOD":"95.592","CENTER_NAME":"EARTH","ECCENTRICITY":"0.00016110","MEAN_ANOMALY":"296.9178","NORAD_CAT_ID":"47863","RCS_SIZE":"LARGE","MEAN_MOTION_DDOT":"0.0000000000000","BSTAR":"0.00008987200000","OBJECT_NAME":"STARLINK-2293","MEAN_MOTION":"15.06400069","SEMIMAJOR_AXIS":"6925.348","ARG_OF_PERICENTER":"63.1975","ELEMENT_SET_NO":"999","INCLINATION":"53.0554","TIME_SYSTEM":"UTC"},{"RCS_SIZE":"LARGE","NORAD_CAT_ID":"47864","MEAN_ANOMALY":"306.0627","ECCENTRICITY":"0.00015720","CENTER_NAME":"EARTH","PERIOD":"95.592","COUNTRY_CODE":"US","CLASSIFICATION_TYPE":"U","TIME_SYSTEM":"UTC","ARG_OF_PERICENTER":"54.0508","ELEMENT_SET_NO":"999","INCLINATION":"53.0552","SEMIMAJOR_AXIS":"6925.330","MEAN_MOTION":"15.06406027","OBJECT_NAME":"STARLINK-2304","BSTAR":"0.00023234000000","MEAN_MOTION_DDOT":"0.0000000000000","REV_AT_EPOCH":"6620","GP_ID":"203883129","RA_OF_ASC_NODE":"25.5010","LAUNCH_DATE":"2021-03-14","OBJECT_ID":"2021-021E","FILE":"3452318","EPHEMERIS_TYPE":"0","MEAN_MOTION_DOT":"0.00003181","REF_FRAME":"TEME","TLE_LINE1":"1 47864U 21021E   22138.81710567  .00003181  00000-0  23234-3 0  9996","EPOCH":"2022-05-18T19:36:37.929888","SITE":"AFETR","APOAPSIS":"548.284","PERIAPSIS":"546.106","DECAY_DATE":null,"MEAN_ELEMENT_THEORY":"SGP4","TLE_LINE2":"2 47864  53.0552  25.5010 0001572  54.0508 306.0627 15.06406027 66200","OBJECT_TYPE":"PAYLOAD"},{"TLE_LINE1":"1 47865U 21021F   22138.08732092  .00000364  00000-0  43365-4 0  9991","EPOCH":"2022-05-18T02:05:44.527488","SITE":"AFETR","APOAPSIS":"548.436","PERIAPSIS":"546.036","DECAY_DATE":null,"TLE_LINE2":"2 47865  53.0583  38.7626 0001733  62.8187 297.2979 15.06392691 66553","MEAN_ELEMENT_THEORY":"SGP4","OBJECT_TYPE":"PAYLOAD","REV_AT_EPOCH":"6655","RA_OF_ASC_NODE":"38.7626","GP_ID":"203872731","LAUNCH_DATE":"2021-03-14","OBJECT_ID":"2021-021F","FILE":"3451871","EPHEMERIS_TYPE":"0","MEAN_MOTION_DOT":"0.00000364","REF_FRAME":"TEME","TIME_SYSTEM":"UTC","ELEMENT_SET_NO":"999","INCLINATION":"53.0583","ARG_OF_PERICENTER":"62.8187","SEMIMAJOR_AXIS":"6925.371","MEAN_MOTION":"15.06392691","OBJECT_NAME":"STARLINK-2310","BSTAR":"0.00004336500000","MEAN_MOTION_DDOT":"0.0000000000000","RCS_SIZE":"LARGE","NORAD_CAT_ID":"47865","MEAN_ANOMALY":"297.2979","ECCENTRICITY":"0.00017330","PERIOD":"95.593","CENTER_NAME":"EARTH","COUNTRY_CODE":"US","CLASSIFICATION_TYPE":"U"},{"OBJECT_TYPE":"PAYLOAD","TLE_LINE2":"2 47866  53.0550  38.7633 0001658  49.0089 311.1043 15.06388641 66604","MEAN_ELEMENT_THEORY":"SGP4","APOAPSIS":"548.397","DECAY_DATE":null,"PERIAPSIS":"546.100","TLE_LINE1":"1 47866U 21021G   22138.09100583  .00001120  00000-0  94133-4 0  9997","EPOCH":"2022-05-18T02:11:02.903712","SITE":"AFETR","EPHEMERIS_TYPE":"0","FILE":"3451871","REF_FRAME":"TEME","MEAN_MOTION_DOT":"0.00001120","LAUNCH_DATE":"2021-03-14","OBJECT_ID":"2021-021G","GP_ID":"203871479","RA_OF_ASC_NODE":"38.7633","REV_AT_EPOCH":"6660","BSTAR":"0.00009413300000","MEAN_MOTION_DDOT":"0.0000000000000","OBJECT_NAME":"STARLINK-2320","MEAN_MOTION":"15.06388641","SEMIMAJOR_AXIS":"6925.383","ARG_OF_PERICENTER":"49.0089","ELEMENT_SET_NO":"999","INCLINATION":"53.0550","TIME_SYSTEM":"UTC","CENTER_NAME":"EARTH","PERIOD":"95.593","CLASSIFICATION_TYPE":"U","COUNTRY_CODE":"US","ECCENTRICITY":"0.00016580","MEAN_ANOMALY":"311.1043","NORAD_CAT_ID":"47866","RCS_SIZE":"LARGE"}];
